[{"OBJECT_NAME":"STARLINK-31451","OBJECT_ID":"2024-060U","EPOCH":"2026-03-09T12:55:43.254048","MEAN_MOTION":15.27579905,"ECCENTRICITY":0.00011776,"INCLINATION":43.0004,"RA_OF_ASC_NODE":260.3726,"ARG_OF_PERICENTER":278.2614,"MEAN_ANOMALY":81.8104,"EPHEMERIS_TYPE":0,"CLASSIFICATION_TYPE":"U","NORAD_CAT_ID":59366,"ELEMENT_SET_NO":999,"REV_AT_EPOCH":11004,"BSTAR":3.1325835e-5,"MEAN_MOTION_DOT":6.0e-6,"MEAN_MOTION_DDOT":0},{"OBJECT_NAME":"SIMSAT 1","OBJECT_ID":"2000-026A","EPOCH":"2026-03-09T17:22:54.646176","MEAN_MOTION":15.27666538,"ECCENTRICITY":0.00084816,"INCLINATION":86.3501,"RA_OF_ASC_NODE":180.5413,"ARG_OF_PERICENTER":14.8337,"MEAN_ANOMALY":345.3157,"EPHEMERIS_TYPE":0,"CLASSIFICATION_TYPE":"U","NORAD_CAT_ID":26365,"ELEMENT_SET_NO":999,"REV_AT_EPOCH":42720,"BSTAR":0.00013499313,"MEAN_MOTION_DOT":3.69e-5,"MEAN_MOTION_DDOT":0}]
